NORAD_CAT_ID,OBJECT_NAME,OBJECT_TYPE,EPOCH,MEAN_MOTION,ECCENTRICITY,INCLINATION,RA_OF_ASC_NODE,ARG_OF_PERICENTER,MEAN_ANOMALY,BSTAR,MEAN_MOTION_DOT,MEAN_MOTION_DDOT,TLE_LINE0,TLE_LINE1,TLE_LINE2,SEMIMAJOR_AXIS,PERIOD,APOGEE,PERIGEE,DECAYED
50193.0,STARLINK-3261,PAYLOAD,2022-05-03 04:00:00,15.08823912,0.0001779,53.2154,73.2448,47.6174,298.1533,-0.0006034,-9.874e-05,0.0,0 STARLINK-3261,1 50193U 21125AP  22123.16667824 -.00009874  00000-0 -60340-3 0  9995,2 50193  53.2154  73.2448 0001779  47.6174 298.1533 15.08823912 23916,6917.93,95.439,541.025,538.564,0.0
50193.0,STARLINK-3261,PAYLOAD,2022-05-03 14:00:01,15.08831752,0.0001649,53.2152,71.3732,49.7865,40.4539,-0.00028414,-4.806e-05,0.0,0 STARLINK-3261,1 50193U 21125AP  22123.58334491 -.00004806  00000-0 -28414-3 0  9998,2 50193  53.2152  71.3732 0001649  49.7865  40.4539 15.08831752  3604,6917.906,95.438,540.911,538.63,0.0
50193.0,STARLINK-3261,PAYLOAD,2022-05-03 22:00:00,15.08849221,0.0001658,53.2154,69.8768,53.5598,48.2605,-0.00011273,-2.082e-05,0.0,0 STARLINK-3261,1 50193U 21125AP  22123.91667824 -.00002082  00000-0 -11273-3 0  9993,2 50193  53.2154  69.8768 0001658  53.5598  48.2605 15.08849221 24033,6917.852,95.437,540.864,538.57,0.0
50193.0,STARLINK-3261,PAYLOAD,2022-05-04 14:00:01,15.08869345,0.0001651,53.2152,66.8841,50.5122,74.5231,-0.0015942,-0.00025591,0.0,0 STARLINK-3261,1 50193U 21125AP  22124.58334491 -.00025591  00000-0 -15942-2 0  9994,2 50193  53.2152  66.8841 0001651  50.5122  74.5231 15.08869345  3609,6917.791,95.436,540.798,538.514,0.0
50193.0,STARLINK-3261,PAYLOAD,2022-05-04 22:00:01,15.08860106,0.0001629999999999,53.2154,65.3877,52.3679,84.3518,-0.00047641,-7.866e-05,0.0,0 STARLINK-3261,1 50193U 21125AP  22124.91668981 -.00007866  00000-0 -47641-3 0  9992,2 50193  53.2154  65.3877 0001630  52.3679  84.3518 15.08860106  3601,6917.819,95.436,540.812,538.556,0.0
50193.0,STARLINK-3261,PAYLOAD,2022-05-05 06:00:00,15.08828076,0.0001739,53.2154,63.8929,43.9202,104.3571,0.001145,0.00017976,0.0,0 STARLINK-3261,1 50193U 21125AP  22125.25001157  .00017976  00000-0  11450-2 0  9995,2 50193  53.2154  63.8929 0001739  43.9202 104.3571 15.08828076 24234,6917.917,95.438,540.985,538.5790000000002,0.0
50193.0,STARLINK-3261,PAYLOAD,2022-05-05 14:00:01,15.08844826,0.0001614,53.2155,62.3948,47.5059,112.3596,-0.0018635,-0.00029827,0.0,0 STARLINK-3261,1 50193U 21125AP  22125.58334491 -.00029827  00000-0 -18635-2 0  9993,2 50193  53.2155  62.3948 0001614  47.5059 112.3596 15.08844826  3562,6917.866,95.437,540.847,538.614,0.0
50193.0,STARLINK-3261,PAYLOAD,2022-05-05 22:00:00,15.08830865,0.0001739,53.2156,60.8987,52.4512,119.0009,-0.00053291,-8.757e-05,0.0,0 STARLINK-3261,1 50193U 21125AP  22125.91667824 -.00008757  00000-0 -53291-3 0  9996,2 50193  53.2156  60.8987 0001739  52.4512 119.0009 15.08830865 24335,6917.908,95.438,540.976,538.57,0.0
50193.0,STARLINK-3261,PAYLOAD,2022-05-06 14:00:01,15.08836039,0.000172,53.2158,57.9056,50.4414,144.1752,0.00015333,2.153e-05,0.0,0 STARLINK-3261,1 50193U 21125AP  22126.58334491  .00002153  00000-0  15333-3 0  9998,2 50193  53.2158  57.9056 0001720  50.4414 144.1752 15.08836039  3600,6917.892,95.438,540.947,538.568,0.0
50193.0,STARLINK-3261,PAYLOAD,2022-05-06 22:00:00,15.08841633,0.0001742,53.2163,56.4089,51.6472,154.5601,-0.0017675999999999,-0.00028311,0.0,0 STARLINK-3261,1 50193U 21125AP  22126.91667824 -.00028311  00000-0 -17676-2 0  9991,2 50193  53.2163  56.4089 0001742  51.6472 154.5601 15.08841633 24480,6917.875,95.437,540.945,538.535,0.0
50193.0,STARLINK-3261,PAYLOAD,2022-05-07 14:00:01,15.08825844,0.0001685,53.2161,53.4163,49.7425,179.6387,0.0017437999999999,0.00027563,0.0,0 STARLINK-3261,1 50193U 21125AP  22127.58334491  .00027563  00000-0  17438-2 0  9998,2 50193  53.2161  53.4163 0001685  49.7425 179.6387 15.08825844 24586,6917.924,95.438,540.9540000000002,538.623,0.0
50193.0,STARLINK-3261,PAYLOAD,2022-05-07 22:00:00,15.08867667,0.0001692,53.2163,51.9205,50.7682,190.2005,-0.0036203,-0.00057489,0.0,0 STARLINK-3261,1 50193U 21125AP  22127.91667824 -.00057489  00000-0 -36203-2 0  9997,2 50193  53.2163  51.9205 0001692  50.7682 190.2005 15.08867667  3608,6917.795999999999,95.436,540.831,538.49,0.0
50193.0,STARLINK-3261,PAYLOAD,2022-05-08 06:00:00,15.08809129,0.0001802,53.216,50.4252,44.0842,208.4926,0.0033287,0.00053043,0.0,0 STARLINK-3261,1 50193U 21125AP  22128.25001157  .00053043  00000-0  33287-2 0  9995,2 50193  53.2160  50.4252 0001802  44.0842 208.4926 15.08809129 24682,6917.975,95.44,541.086,538.5930000000002,0.0
50193.0,STARLINK-3261,PAYLOAD,2022-05-08 14:00:01,15.08830772,0.0001647,53.2162,48.927,50.5763,213.5844,0.00031925,4.795e-05,0.0,0 STARLINK-3261,1 50193U 21125AP  22128.58334491  .00004795  00000-0  31925-3 0  9999,2 50193  53.2162  48.9270 0001647  50.5763 213.5844 15.08830772  3598,6917.909000000002,95.438,540.913,538.634,0.0
50193.0,STARLINK-3261,PAYLOAD,2022-05-08 22:00:00,15.08842571,0.0001758,53.2163,47.4313,53.136,222.6148,-0.0014872,-0.00023881,0.0,0 STARLINK-3261,1 50193U 21125AP  22128.91667824 -.00023881  00000-0 -14872-2 0  9995,2 50193  53.2163  47.4313 0001758  53.1360 222.6148 15.08842571 24788,6917.873000000001,95.437,540.9540000000002,538.521,0.0
50193.0,STARLINK-3261,PAYLOAD,2022-05-09 14:00:01,15.08822335,0.0001686999999999,53.216,44.4377,54.8431,244.1546,0.0027634,0.00043945,0.0,0 STARLINK-3261,1 50193U 21125AP  22129.58335648  .00043945  00000-0  27634-2 0  9996,2 50193  53.2160  44.4377 0001687  54.8431 244.1546 15.08822335 24888,6917.934,95.439,540.966,538.632,0.0
50193.0,STARLINK-3261,PAYLOAD,2022-05-09 22:00:00,15.08871189,0.0001721999999999,53.2161,42.9422,53.6578,256.8698,-0.0037243,-0.00059125,0.0,0 STARLINK-3261,1 50193U 21125AP  22129.91667824 -.00059125  00000-0 -37243-2 0  9993,2 50193  53.2161  42.9422 0001722  53.6578 256.8698 15.08871189  3563,6917.785,95.436,540.841,538.4590000000002,0.0
50193.0,STARLINK-3261,PAYLOAD,2022-05-10 08:00:01,15.08847477,0.000175,53.2155,41.0719,48.5777,6.4478,-0.00079204,-0.00012874,0.0,0 STARLINK-3261,1 50193U 21125AP  22130.33334491 -.00012874  00000-0 -79204-3 0  9996,2 50193  53.2155  41.0719 0001750  48.5777   6.4478 15.08847477 25001,6917.858,95.437,540.933,538.512,0.0
50193.0,STARLINK-3261,PAYLOAD,2022-05-10 14:00:01,15.08829341,0.0001564,53.2157,39.9484,54.4846,279.2475,0.00019941,2.886e-05,0.0,0 STARLINK-3261,1 50193U 21125AP  22130.58334491  .00002886  00000-0  19941-3 0  9995,2 50193  53.2157  39.9484 0001564  54.4846 279.2475 15.08829341  3591,6917.913000000001,95.438,540.86,538.696,0.0
50193.0,STARLINK-3261,PAYLOAD,2022-05-10 18:00:00,15.08831431,0.0001581,53.216,39.2003,56.8357,102.6872,0.00018792,2.703e-05,0.0,0 STARLINK-3261,1 50193U 21125AP  22130.75001157  .00002703  00000-0  18792-3 0  9995,2 50193  53.2160  39.2003 0001581  56.8357 102.6872 15.08831431  3589,6917.906999999997,95.438,540.865,538.678,0.0
50193.0,STARLINK-3261,PAYLOAD,2022-05-11 22:00:00,15.08866851,0.0001683,53.2157,33.9641,52.9965,327.0773,-0.0021064,-0.0003368,0.0,0 STARLINK-3261,1 50193U 21125AP  22131.91667824 -.00033680  00000-0 -21064-2 0  9998,2 50193  53.2157  33.9641 0001683  52.9965 327.0773 15.08866851 25232,6917.7980000000025,95.436,540.828,538.499,0.0
50193.0,STARLINK-3261,PAYLOAD,2022-05-12 14:00:01,15.08790389,0.0001675999999999,53.2165,30.9681,51.7427,351.5282,0.0037886,0.00060443,0.0,0 STARLINK-3261,1 50193U 21125AP  22132.58334491  .00060443  00000-0  37886-2 0  9997,2 50193  53.2165  30.9681 0001676  51.7427 351.5282 15.08790389  1305,6918.031999999997,95.441,541.056,538.738,0.0
50193.0,STARLINK-3261,PAYLOAD,2022-05-12 22:00:00,15.08842141,0.0001621,53.2159,29.475,48.917,5.912999999999999,-0.0009441,-0.00015283,0.0,0 STARLINK-3261,1 50193U 21125AP  22132.91667824 -.00015283  00000-0 -94410-3 0  9994,2 50193  53.2159  29.4750 0001621  48.9170   5.9130 15.08842141  1307,6917.874,95.437,540.86,538.617,0.0
50193.0,STARLINK-3261,PAYLOAD,2022-05-13 06:00:00,15.08839622,0.0001696,53.2157,27.979,44.1847,22.2325,0.0013189,0.00020764,0.0,0 STARLINK-3261,1 50193U 21125AP  22133.25001157  .00020764  00000-0  13189-2 0  9994,2 50193  53.2157  27.9790 0001696  44.1847  22.2325 15.08839622 25442,6917.882,95.438,540.92,538.573,0.0
50193.0,STARLINK-3261,PAYLOAD,2022-05-13 14:00:01,15.0883955,0.0001592,53.2161,26.4809,52.4852,25.5395,0.00078722,0.00012263,0.0,0 STARLINK-3261,1 50193U 21125AP  22133.58334491  .00012263  00000-0  78722-3 0  9990,2 50193  53.2161  26.4809 0001592  52.4852  25.5395 15.08839550  1307,6917.882,95.438,540.8480000000002,538.645,0.0
50193.0,STARLINK-3261,PAYLOAD,2022-05-13 22:00:00,15.08846556,0.0001808,53.2163,24.986,51.5684,38.0541,-0.00090308,-0.00014635,0.0,0 STARLINK-3261,1 50193U 21125AP  22133.91667824 -.00014635  00000-0 -90308-3 0  9997,2 50193  53.2163  24.9860 0001808  51.5684  38.0541 15.08846556 25540,6917.86,95.437,540.976,538.475,0.0
50193.0,STARLINK-3261,PAYLOAD,2022-05-14 14:00:01,15.08820699,0.0001604,53.2165,21.9918,52.4819,60.3565,0.003855,0.00061568,0.0,0 STARLINK-3261,1 50193U 21125AP  22134.58334491  .00061568  00000-0  38550-2 0  9997,2 50193  53.2165  21.9918 0001604  52.4819  60.3565 15.08820699  1309,6917.939,95.439,540.914,538.695,0.0
50193.0,STARLINK-3261,PAYLOAD,2022-05-14 16:00:00,15.08839391,0.0001628,53.2167,21.6178,54.4267,151.3037,0.0026626,0.00042342,0.0,0 STARLINK-3261,1 50193U 21125AP  22134.66667824  .00042342  00000-0  26626-2 0  9995,2 50193  53.2167  21.6178 0001628  54.4267 151.3037 15.08839391 25659,6917.882,95.438,540.873,538.621,0.0
50193.0,STARLINK-3261,PAYLOAD,2022-05-14 22:00:00,15.08832397,0.0001862,53.2166,20.497,51.9565,72.4725,-0.00045359,-7.498e-05,0.0,0 STARLINK-3261,1 50193U 21125AP  22134.91667824 -.00007498  00000-0 -45359-3 0  9993,2 50193  53.2166  20.4970 0001862  51.9565  72.4725 15.08832397 25698,6917.904,95.438,541.057,538.481,0.0
